      2.10          N: GNSS NAV DATA                        RINEX VERSION / TYPE
fic2rin                                 10/18/2022 00:17:42 PGM / RUN BY / DATE
                                                            END OF HEADER
26 22 10 17  8  0  0.0  .232752412558D-03  .136424205266D-11  .000000000000D+00
     .130000000000D+02  .414687500000D+02  .501556606132D-08 -.962629307706D+00
     .213272869587D-05  .727704376914D-02  .711344182491D-05  .515357409668D+04
     .115200000000D+06  .204890966415D-06 -.217800178007D+01 -.372529029846D-07
     .935996494937D+00  .225281250000D+03  .383548350637D+00 -.823891461244D-08
    -.161792453591D-09  .100000000000D+01  .223200000000D+04  .000000000000D+00
     .240000000000D+01  .000000000000D+00  .698491930962D-08  .130000000000D+02
     .108000000000D+06  .400000000000D+01
23 22 10 17  8  0  0.0 -.103376805782D-05 -.227373675443D-12  .000000000000D+00
     .540000000000D+02 -.651562500000D+02  .432946605392D-08  .525779727030D+00
    -.356882810593D-05  .276581989601D-02  .617653131485D-05  .515363093948D+04
     .115200000000D+06  .149011611938D-07  .995500996487D+00  .372529029846D-08
     .970477118576D+00  .264468750000D+03  .303464723578D+01 -.799319009131D-08
    -.600024993449D-10  .100000000000D+01  .223200000000D+04  .000000000000D+00
     .240000000000D+01  .000000000000D+00 -.838190317154D-08  .540000000000D+02
     .108000000000D+06  .400000000000D+01
32 22 10 17  8  0  0.0 -.266003422439D-03 -.119371179608D-10  .000000000000D+00
     .390000000000D+02 -.271562500000D+02  .447268630534D-08 -.201456385250D+01
    -.132806599140D-05  .613191991579D-02  .849552452564D-05  .515365627670D+04
     .115200000000D+06  .111758708954D-07  .206336713171D+01 -.152736902237D-06
     .958567669265D+00  .217125000000D+03 -.229737562324D+01 -.776282335275D-08
     .175721605224D-09  .100000000000D+01  .223200000000D+04  .000000000000D+00
     .240000000000D+01  .000000000000D+00  .465661287308D-09  .390000000000D+02
     .108000000000D+06  .400000000000D+01
30 22 10 17  8  0  0.0 -.537205953151D-03  .113686837722D-12  .000000000000D+00
     .390000000000D+02  .126250000000D+02  .511842748876D-08  .559448909510D+00
     .767409801483D-06  .594708416611D-02  .741332769394D-05  .515369231224D+04
     .115200000000D+06 -.372529029846D-08  .313209742873D+01  .176951289177D-06
     .936118214110D+00  .222906250000D+03 -.265802864323D+01 -.823998608564D-08
    -.357157734196D-10  .100000000000D+01  .223200000000D+04  .000000000000D+00
     .240000000000D+01  .000000000000D+00  .372529029846D-08  .390000000000D+02
     .108000000000D+06  .400000000000D+01
16 22 10 17  8  0  0.0 -.526312738657D-03 -.454747350886D-12  .000000000000D+00
     .890000000000D+02  .550000000000D+02  .427517807833D-08 -.183180133008D+01
     .258535146713D-05  .128668836551D-01  .706128776073D-05  .515372484779D+04
     .115200000000D+06  .158324837685D-06 -.202828788491D+01 -.149011611938D-06
     .967354410217D+00  .241812500000D+03  .735462379326D+00 -.770317801114D-08
    -.228580949885D-10  .100000000000D+01  .223200000000D+04  .000000000000D+00
     .240000000000D+01  .000000000000D+00 -.102445483208D-07  .890000000000D+02
     .108000000000D+06  .400000000000D+01
10 22 10 17  8  0  0.0 -.785058364272D-05 -.159161572810D-11  .000000000000D+00
     .660000000000D+02 -.665312500000D+02  .423160483476D-08 -.699290727717D+00
    -.360794365406D-05  .802918954287D-02  .683777034283D-05  .515368358040D+04
     .115200000000D+06  .104308128357D-06  .102159336489D+01  .150874257088D-06
     .975364389945D+00  .255375000000D+03 -.250871700812D+01 -.795211695188D-08
    -.685742849656D-10  .100000000000D+01  .223200000000D+04  .000000000000D+00
     .340000000000D+01  .000000000000D+00  .232830643654D-08  .660000000000D+02
     .108000000000D+06  .400000000000D+01
8  22 10 17  8  0  0.0 -.892486423254D-04 -.170530256582D-11  .000000000000D+00
     .760000000000D+02  .694062500000D+02  .443589905872D-08 -.272673187418D+01
     .357627868652D-05  .762313441373D-02  .603124499321D-05  .515360752487D+04
     .115200000000D+06 -.968575477600D-07 -.109334343581D+01 -.707805156708D-07
     .961588282035D+00  .268125000000D+03  .163281471409D+00 -.796711757671D-08
     .535736601294D-10  .100000000000D+01  .223200000000D+04  .000000000000D+00
     .240000000000D+01  .000000000000D+00  .512227416039D-08  .760000000000D+02
     .108000000000D+06  .400000000000D+01
15 22 10 17  8  0  0.0 -.202180817723D-04  .318323145621D-11  .000000000000D+00
     .610000000000D+02 -.449375000000D+02  .505485341208D-08  .256574449532D+01
    -.244379043579D-05  .146834405605D-01  .782869756222D-05  .515362983704D+04
     .115200000000D+06  .141561031342D-06  .193860806619D+01 -.176951289177D-06
     .930839356144D+00  .210375000000D+03  .114751083916D+01 -.798247535928D-08
     .106075847056D-09  .100000000000D+01  .223200000000D+04  .000000000000D+00
     .240000000000D+01  .000000000000D+00 -.107102096081D-07  .610000000000D+02
     .108000000000D+06  .400000000000D+01
9  22 10 17  8  0  0.0 -.282058492303D-03  .522959453519D-11  .000000000000D+00
     .960000000000D+02 -.360000000000D+02  .462019244956D-08 -.233066269736D+01
    -.188872218132D-05  .259185163304D-02  .834837555885D-05  .515373958588D+04
     .115200000000D+06  .409781932831D-07  .205113477834D+01  .651925802231D-07
     .954822992507D+00  .216625000000D+03  .191121279076D+01 -.789997192268D-08
     .146077513286D-09  .100000000000D+01  .223200000000D+04  .000000000000D+00
     .340000000000D+01  .000000000000D+00  .139698386192D-08  .960000000000D+02
     .108000000000D+06  .400000000000D+01
7  22 10 17  8  0  0.0  .297876074910D-03 -.386535248253D-11  .000000000000D+00
     .490000000000D+02  .127500000000D+02  .484234456023D-08  .670708942337D+00
     .823289155960D-06  .164314758731D-01  .768154859543D-05  .515362374306D+04
     .115200000000D+06 -.277534127235D-06  .312262870024D+01  .137835741043D-06
     .950982649685D+00  .229406250000D+03 -.223962403255D+01 -.822784272268D-08
    -.179293182566D-09  .100000000000D+01  .223200000000D+04  .000000000000D+00
     .240000000000D+01  .000000000000D+00 -.111758708954D-07  .490000000000D+02
     .108000000000D+06  .400000000000D+01
6  22 10 17  8  0  0.0  .493511557579D-03  .108002495836D-10  .000000000000D+00
     .490000000000D+02 -.121875000000D+02  .398338020949D-08  .154666910941D+01
    -.633299350739D-06  .251997658052D-02  .409223139286D-05  .515354191971D+04
     .115200000000D+06 -.372529029846D-08 -.162468609755D-01 -.745058059692D-08
     .988345341899D+00  .313062500000D+03 -.911201515429D+00 -.792675875275D-08
    -.189293599124D-10  .100000000000D+01  .223200000000D+04  .000000000000D+00
     .240000000000D+01  .000000000000D+00  .372529029846D-08  .490000000000D+02
     .108000000000D+06  .400000000000D+01
21 22 10 17  8  0  0.0  .157874543220D-03 -.682121026330D-12  .000000000000D+00
     .580000000000D+02 -.743750000000D+01  .443054169270D-08 -.273489805406D+01
     .298023223877D-07  .243956415216D-01  .317953526974D-05  .515369777870D+04
     .115200000000D+06 -.856816768646D-07 -.105443817255D+00  .312924385071D-06
     .961241146203D+00  .314031250000D+03 -.882420316760D+00 -.782104006343D-08
     .119290683221D-09  .100000000000D+01  .223200000000D+04  .000000000000D+00
     .240000000000D+01  .000000000000D+00 -.102445483208D-07  .580000000000D+02
     .108000000000D+06  .400000000000D+01
13 22 10 17  8  0  0.0  .407570973039D-03  .704858393874D-11  .000000000000D+00
     .600000000000D+02 -.317187500000D+02  .422981904608D-08  .306050196777D+01
    -.160373747349D-05  .658557692077D-02  .839494168758D-05  .515367399406D+04
     .115200000000D+06  .502914190292D-07  .220790033216D+01 -.502914190292D-07
     .969023174036D+00  .220812500000D+03  .945131419169D+00 -.765531887476D-08
     .146434671020D-09  .100000000000D+01  .223200000000D+04  .000000000000D+00
     .240000000000D+01  .000000000000D+00 -.111758708954D-07  .600000000000D+02
     .108000000000D+06  .400000000000D+01
27 22 10 17  8  0  0.0  .196574255824D-03 -.648014975013D-11  .000000000000D+00
     .390000000000D+02  .568750000000D+02  .425696303388D-08 -.273025847521D+01
     .277534127235D-05  .106586654438D-01  .578910112381D-05  .515366149139D+04
     .115200000000D+06  .242143869400D-07 -.107187459074D+01 -.178813934326D-06
     .970402479033D+00  .274812500000D+03  .685681471466D+00 -.782389732530D-08
     .700029159024D-10  .100000000000D+01  .223200000000D+04  .000000000000D+00
     .240000000000D+01  .000000000000D+00  .139698386192D-08  .390000000000D+02
     .108000000000D+06  .400000000000D+01
31 22 10 17  8  0  0.0 -.197072047740D-03 -.136424205266D-11  .000000000000D+00
     .950000000000D+02  .135312500000D+02  .470983904084D-08  .134200958237D+00
     .854954123497D-06  .106221124297D-01  .722520053387D-05  .515359461212D+04
     .115200000000D+06  .104308128357D-06 -.314148872057D+01  .126659870148D-06
     .955141478551D+00  .235281250000D+03  .444257252161D+00 -.816498296146D-08
    -.428589281035D-10  .100000000000D+01  .223200000000D+04  .000000000000D+00
     .240000000000D+01  .000000000000D+00 -.135041773319D-07  .950000000000D+02
     .108000000000D+06  .400000000000D+01
24 22 10 17  8  0  0.0  .966354273260D-04 -.146656020661D-10  .000000000000D+00
     .102000000000D+03  .122187500000D+02  .519878797896D-08  .161009860115D+01
     .534579157829D-06  .132138672052D-01  .775977969170D-05  .515366974258D+04
     .115200000000D+06 -.288709998131D-06  .303580666272D+01  .130385160446D-07
     .934503584111D+00  .218906250000D+03  .848029087655D+00 -.837392023596D-08
    -.453590322429D-10  .100000000000D+01  .223200000000D+04  .000000000000D+00
     .340000000000D+01  .000000000000D+00  .279396772385D-08  .102000000000D+03
     .108000000000D+06  .400000000000D+01
